{"fetched_at":"2026-03-29T16:36:15Z","count":15609,"tles":[{"name":"STARLINK-36509","line1":"1 67408U 26005E   26087.81760847  .00020182  00000+0  74117-3 0  9997","line2":"2 67408  43.0007 129.8038 0001713 275.1383  84.9273 15.27568240 11615","category":"Starlink"}]}